LEMUR-2-OZARAK          
1 46908U 20081D   23164.85180301  .00013115  00000+0  77664-3 0  9993
2 46908  36.8991 226.6566 0008317 166.7254 193.3710 15.10795195142642
LEMUR-2-JINDRA          
1 46909U 20081E   23164.87521716  .00015344  00000+0  85877-3 0  9996
2 46909  36.8991 222.2246 0009025 174.4418 185.6428 15.12772388142703
LEMUR-2-WALLACE         
1 46910U 20081F   23164.85027347  .00014529  00000+0  83335-3 0  9998
2 46910  36.8988 223.8664 0008780 171.6413 188.4479 15.11911398142671
LEMUR-2-JEREMIAH        
1 46911U 20081G   23164.50367000  .00011816  00000+0  69394-3 0  9999
2 46911  36.9027 226.7242 0009245 165.8415 194.2589 15.11119912142629
LEMUR-2-NEVA            
1 47450U 21006AP  23164.88549854  .00038596  00000+0  11731-2 0  9991
2 47450  97.3947 225.4861 0009179  99.2356 260.9925 15.33907975132311
LEMUR-2-SAOIRSEDH5GUO   
1 47453U 21006AS  23165.41793699  .00043285  00000+0  12195-2 0  9998
2 47453  97.3969 226.5840 0007924 102.9441 257.2688 15.36282396132412
LEMUR-2-NALLYWACKER     
1 47457U 21006AW  23164.39281402  .00044814  00000+0  12540-2 0  9995
2 47457  97.3941 225.5180 0008346 102.3292 257.8887 15.36483658132274
LEMUR-2-MANGO1          
1 47493U 21006CJ  23164.40835439  .00024795  00000+0  87882-3 0  9990
2 47493  97.3900 222.9286 0009187 105.3427 254.8829 15.29047884132142
LEMUR-2-RUAIRI-EILIDH   
1 47511U 21006DC  23164.90017543  .00034438  00000+0  11270-2 0  9996
2 47511  97.3884 223.4044 0007298 108.0980 252.1057 15.31584636132224
LEMUR-2-JENNIFERSONG    
1 47525U 21006DR  23165.36303796  .00043732  00000+0  12162-2 0  9998
2 47525  97.3898 226.0096 0008323  96.5264 263.6928 15.36681602132428
LEMUR-2-CHANTAL         
1 47529U 21006DV  23165.12116615  .00023018  00000+0  79521-3 0  9996
2 47529  97.3867 223.0557 0007132 103.0169 257.1869 15.29915195133176
LEMUR-2-NOOBNOOB        
1 47538U 21006DY  23165.14419268  .00022807  00000+0  72745-3 0  9994
2 47538  97.3928 225.3915 0009136  94.6265 265.6021 15.32479865132328
LEMUR-2-AMANDA-SVANTE   
1 48269U 21034B   23164.89918439  .00005948  00000+0  59527-3 0  9992
2 48269  97.7071 232.6553 0002074 345.6428  14.4732 14.91779516115326
LEMUR-2-SPECIAL-K       
1 48273U 21034F   23164.61553900  .00007576  00000+0  74843-3 0  9992
2 48273  97.7072 232.4052 0001997 347.4255  12.6914 14.92211611115291
LEMUR-2-JACKSON         
1 48885U 21059G   23164.81974446  .00034416  00000+0  97946-3 0  9994
2 48885  97.5854 302.7034 0005490 269.0393  91.0221 15.36035609108969
LEMUR-2-ANNABANANA      
1 48923U 21059AW  23165.34665968  .00041374  00000+0  10339-2 0  9993
2 48923  97.5800 304.3771 0007150 249.2601 110.7878 15.40004140109156
LEMUR-2-JOHN-TREIRES    
1 48925U 21059AY  23164.38777318  .00052866  00000+0  11802-2 0  9995
2 48925  97.5963 305.1292 0008345 255.5039 104.5283 15.43338010109078
LEMUR-2-AC-CUBED        
1 48927U 21059BA  23165.13816354  .00033479  00000+0  92010-3 0  9995
2 48927  97.5938 304.5088 0010407 262.4057  97.6005 15.37091581109118
LEMUR-2-MERIMA          
1 48929U 21059BC  23165.43503853  .00036717  00000+0  92669-3 0  9995
2 48929  97.5801 305.1919 0010262 260.4760  99.5326 15.39699811109217
LEMUR-2-CARLSANTAMARI   
1 48959U 21059CJ  23165.20625921  .00148861  00000+0  16673-2 0  9998
2 48959  97.5888 309.1213 0008706 262.4160  97.6108 15.62163087109429
LEMUR-2-RAMONAMAE       
1 51021U 22002AP  23164.49648396  .00039923  00000+0  12394-2 0  9996
2 51021  97.4422 233.6546 0005418 232.8598 127.2150 15.33253349 78318
LEMUR-2-KING-JULIEN     
1 51022U 22002AQ  23165.42537215  .00036130  00000+0  11532-2 0  9998
2 51022  97.4405 234.2589 0005651 227.5716 132.5048 15.32387687 78447
LEMUR-2-ROHOVITHSA      
1 51036U 22002BE  23164.89987672  .00018534  00000+0  75872-3 0  9995
2 51036  97.4418 232.0896 0006109 249.3889 110.6694 15.24346551 78243
LEMUR-2-MIRIWARI        
1 51054U 22002BY  23165.12519878  .00019014  00000+0  76350-3 0  9997
2 51054  97.4406 232.3385 0005625 240.5601 119.5075 15.24993024 78281
LEMUR-2-DJIRANG         
1 51058U 22002CC  23164.60114579  .00022068  00000+0  88501-3 0  9996
2 51058  97.4380 231.6727 0005542 241.3561 118.7119 15.25003786 78200
LEMUR-2-TENNYSONLILY    
1 52732U 22057A   23164.76330171  .00030824  00000+0  10994-2 0  9990
2 52732  97.5490 282.6677 0005572  21.1145 339.0323 15.28823243 58235
LEMUR-2-VANDENDRIES     
1 52733U 22057B   23164.56888905  .00023544  00000+0  99125-3 0  9997
2 52733  97.5333 281.0783 0005249  27.8066 332.3451 15.23354079 58159
LEMUR-2-KAREN B         
1 52736U 22057E   23164.75959897  .00035173  00000+0  12060-2 0  9993
2 52736  97.5348 282.3096 0004202   5.4174 354.7111 15.30088484 58253
LEMUR-2-HANCOM-1        
1 52740U 22057J   23164.57759344  .00018452  00000+0  75820-3 0  9998
2 52740  97.5522 282.1325 0008036  13.2810 346.8637 15.24211197 58165
LEMUR-2-MIMI1307        
1 52769U 22057AP  23164.30385133  .00011433  00000+0  48328-3 0  9996
2 52769  97.5518 282.1219 0009113 345.0536  15.0429 15.23357709 58142
LEMUR-2-PHILARI         
1 55013U 23001E   23164.38402199  .00019941  00000+0  94908-3 0  9998
2 55013  97.4760 224.1605 0008834  38.0963 322.0895 15.19159855 24500
LEMUR-2-DISCLAIMER      
1 55014U 23001F   23164.97544326  .00019686  00000+0  94329-3 0  9996
2 55014  97.4797 224.8298 0010050  40.4873 319.7107 15.18918749 24598
LEMUR-2-STEVEALBERS     
1 55017U 23001J   23164.47401502  .00018267  00000+0  88499-3 0  9997
2 55017  97.4743 224.1634 0009375  38.5982 321.5921 15.18557342 24511
LEMUR-2-EMMACULATE      
1 55037U 23001AE  23164.98384367  .00024942  00000+0  11099-2 0  9992
2 55037  97.4817 225.3167 0013275  21.4322 338.7467 15.21387607 24628
LEMUR-2-MMOLO           
1 55038U 23001AF  23164.88810974  .00025010  00000+0  10952-2 0  9994
2 55038  97.4832 225.3228 0013591  24.5234 335.6646 15.21931461 24618
LEMUR-2-FUENTETAJA-01   
1 55088U 23001CH  23164.97679712  .00022068  00000+0  10152-2 0  9994
2 55088  97.4844 225.2287 0013992  22.8105 337.3748 15.20261625 24612
LEMUR-2-ONREFLECTION    
1 56182U 23054E   23164.48882617  .00011935  00000+0  50787-3 0  9994
2 56182  97.3987  59.3994 0010260  56.4939 303.7277 15.23105147  9615
LEMUR-2-SPACEGUS        
1 56187U 23054K   23164.93856037  .00016083  00000+0  67475-3 0  9997
2 56187  97.3995  59.8692 0010100  45.3024 314.9034 15.23517791  9688
LEMUR-2-ROMEO-N-LEO     
1 56206U 23054AE  23165.12856662  .00027380  00000+0  10611-2 0  9996
2 56206  97.3981  60.2179 0013514  32.4777 327.7291 15.26032001  9726
